0 IRIDIUM 166
1 43570U 18061B   24014.56044488  .00000107  00000-0  31060-4 0  9997
2 43570  86.3943  66.4444 0001952  86.2330 273.9089 14.34217782286600
0 IRIDIUM 158
1 43571U 18061C   24014.52873030  .00000376  00000-0  12724-3 0  9990
2 43571  86.3942  66.4668 0001841  95.9556 264.1850 14.34219985286562
0 IRIDIUM 165
1 43572U 18061D   24014.55410077  .00000162  00000-0  50740-4 0  9996
2 43572  86.3945  66.4862 0001852  96.2640 263.8766 14.34218113286599
0 IRIDIUM 155
1 43573U 18061E   24014.58581483  .00000105  00000-0  30543-4 0  9996
2 43573  86.3940  66.3850 0002265  87.8399 272.3056 14.34216422286562
0 IRIDIUM 154
1 43574U 18061F   24014.56678653  .00000074  00000-0  19235-4 0  9991
2 43574  86.3944  66.4834 0002319  97.9710 262.1749 14.34217784286613
0 IRIDIUM 163
1 43575U 18061G   24014.61752370  .00000476  00000-0  16300-3 0  9992
2 43575  86.3942  66.4053 0002292  95.1512 264.9945 14.34220756286593
0 IRIDIUM 156
1 43576U 18061H   24014.59215769  .00000455  00000-0  15555-3 0  9994
2 43576  86.3941  66.4216 0001897  91.7052 268.4361 14.34218052286581
0 IRIDIUM 164
1 43577U 18061J   24014.57312946  .00000109  00000-0  31885-4 0  9999
2 43577  86.3943  66.4562 0001948  97.3053 262.8364 14.34217831286628
